LEMUR-2-GREENBERG       
1 42837U 17042N   26068.46200528  .00019778  00000+0  72539-3 0  9997
2 42837  97.3781 249.8007 0009157   4.0119 356.1192 15.27971352473146
STARLINK-30483          
1 57914U 23147B   26068.32690399  .00017081  00000+0  63041-3 0  9999
2 57914  42.9991 181.6730 0001142 141.0292 219.0642 15.27496247138255
